[{"OBJECT_NAME":"ONEWEB-0206","OBJECT_ID":"2021-031T","EPOCH":"2026-06-01T10:19:58.687968","MEAN_MOTION":13.14503185,"ECCENTRICITY":0.0001851,"INCLINATION":87.8953,"RA_OF_ASC_NODE":292.8391,"ARG_OF_PERICENTER":93.5002,"MEAN_ANOMALY":266.6339,"EPHEMERIS_TYPE":0,"CLASSIFICATION_TYPE":"U","NORAD_CAT_ID":48227,"ELEMENT_SET_NO":999,"REV_AT_EPOCH":24615,"BSTAR":-0.00022139000000000002,"MEAN_MOTION_DOT":-6.9e-07,"MEAN_MOTION_DDOT":0.0},{"OBJECT_NAME":"ONEWEB-0182","OBJECT_ID":"2021-031U","EPOCH":"2026-06-01T08:23:30.297408","MEAN_MOTION":13.14502035,"ECCENTRICITY":0.0002083,"INCLINATION":87.8948,"RA_OF_ASC_NODE":292.8635,"ARG_OF_PERICENTER":98.474,"MEAN_ANOMALY":261.6626,"EPHEMERIS_TYPE":0,"CLASSIFICATION_TYPE":"U","NORAD_CAT_ID":48228,"ELEMENT_SET_NO":999,"REV_AT_EPOCH":24635,"BSTAR":-0.00040869,"MEAN_MOTION_DOT":-1.39e-06,"MEAN_MOTION_DDOT":0.0},{"OBJECT_NAME":"ONEWEB-0186","OBJECT_ID":"2021-031V","EPOCH":"2026-06-01T10:29:05.882496","MEAN_MOTION":13.14501562,"ECCENTRICITY":0.0001858,"INCLINATION":87.8957,"RA_OF_ASC_NODE":292.8354,"ARG_OF_PERICENTER":101.2213,"MEAN_ANOMALY":258.9126,"EPHEMERIS_TYPE":0,"CLASSIFICATION_TYPE":"U","NORAD_CAT_ID":48229,"ELEMENT_SET_NO":999,"REV_AT_EPOCH":24631,"BSTAR":-2.5163999999999998e-05,"MEAN_MOTION_DOT":3e-08,"MEAN_MOTION_DDOT":0.0},{"OBJECT_NAME":"ONEWEB-0181","OBJECT_ID":"2021-031W","EPOCH":"2026-06-01T08:07:31.836288","MEAN_MOTION":13.14502512,"ECCENTRICITY":0.0001786,"INCLINATION":87.8942,"RA_OF_ASC_NODE":292.8871,"ARG_OF_PERICENTER":105.4485,"MEAN_ANOMALY":254.6842,"EPHEMERIS_TYPE":0,"CLASSIFICATION_TYPE":"U","NORAD_CAT_ID":48230,"ELEMENT_SET_NO":999,"REV_AT_EPOCH":24615,"BSTAR":-0.00048712,"MEAN_MOTION_DOT":-1.68e-06,"MEAN_MOTION_DDOT":0.0},{"OBJECT_NAME":"ONEWEB-0188","OBJECT_ID":"2021-031X","EPOCH":"2026-06-01T09:02:20.717088","MEAN_MOTION":13.14503178,"ECCENTRICITY":0.0001874,"INCLINATION":87.8942,"RA_OF_ASC_NODE":292.8783,"ARG_OF_PERICENTER":100.0836,"MEAN_ANOMALY":260.0505,"EPHEMERIS_TYPE":0,"CLASSIFICATION_TYPE":"U","NORAD_CAT_ID":48231,"ELEMENT_SET_NO":999,"REV_AT_EPOCH":24606,"BSTAR":0.00068341,"MEAN_MOTION_DOT":2.66e-06,"MEAN_MOTION_DDOT":0.0},{"OBJECT_NAME":"ONEWEB-0220","OBJECT_ID":"2021-031Y","EPOCH":"2026-05-31T21:12:09.127872","MEAN_MOTION":13.1450226,"ECCENTRICITY":0.0001971,"INCLINATION":87.8957,"RA_OF_ASC_NODE":292.9471,"ARG_OF_PERICENTER":104.4154,"MEAN_ANOMALY":255.7195,"EPHEMERIS_TYPE":0,"CLASSIFICATION_TYPE":"U","NORAD_CAT_ID":48232,"ELEMENT_SET_NO":999,"REV_AT_EPOCH":24626,"BSTAR":-0.0005698999999999999,"MEAN_MOTION_DOT":-1.98e-06,"MEAN_MOTION_DDOT":0.0},{"OBJECT_NAME":"ONEWEB-0165","OBJECT_ID":"2021-031Z","EPOCH":"2026-06-01T08:50:55.105440","MEAN_MOTION":13.14502513,"ECCENTRICITY":0.0001625,"INCLINATION":87.8951,"RA_OF_ASC_NODE":292.8644,"ARG_OF_PERICENTER":108.3873,"MEAN_ANOMALY":251.7434,"EPHEMERIS_TYPE":0,"CLASSIFICATION_TYPE":"U","NORAD_CAT_ID":48233,"ELEMENT_SET_NO":999,"REV_AT_EPOCH":24628,"BSTAR":0.00031819,"MEAN_MOTION_DOT":1.31e-06,"MEAN_MOTION_DDOT":0.0},{"OBJECT_NAME":"ONEWEB-0199","OBJECT_ID":"2021-031AA","EPOCH":"2026-06-01T08:28:04.772928","MEAN_MOTION":13.14502436,"ECCENTRICITY":0.0001901,"INCLINATION":87.8956,"RA_OF_ASC_NODE":292.8525,"ARG_OF_PERICENTER":93.4742,"MEAN_ANOMALY":266.6605,"EPHEMERIS_TYPE":0,"CLASSIFICATION_TYPE":"U","NORAD_CAT_ID":48234,"ELEMENT_SET_NO":999,"REV_AT_EPOCH":24618,"BSTAR":-0.00025242,"MEAN_MOTION_DOT":-8.1e-07,"MEAN_MOTION_DDOT":0.0},{"OBJECT_NAME":"ONEWEB-0203","OBJECT_ID":"2021-031AB","EPOCH":"2026-05-31T21:16:42.830112","MEAN_MOTION":13.14501492,"ECCENTRICITY":0.0001683,"INCLINATION":87.8955,"RA_OF_ASC_NODE":292.9493,"ARG_OF_PERICENTER":97.0824,"MEAN_ANOMALY":263.0497,"EPHEMERIS_TYPE":0,"CLASSIFICATION_TYPE":"U","NORAD_CAT_ID":48235,"ELEMENT_SET_NO":999,"REV_AT_EPOCH":24613,"BSTAR":-0.00044562000000000003,"MEAN_MOTION_DOT":-1.52e-06,"MEAN_MOTION_DDOT":0.0},{"OBJECT_NAME":"ONEWEB-0197","OBJECT_ID":"2021-031AC","EPOCH":"2026-06-01T09:27:15.814656","MEAN_MOTION":13.14503116,"ECCENTRICITY":0.0002095,"INCLINATION":87.8948,"RA_OF_ASC_NODE":292.8354,"ARG_OF_PERICENTER":100.0558,"MEAN_ANOMALY":260.0808,"EPHEMERIS_TYPE":0,"CLASSIFICATION_TYPE":"U","NORAD_CAT_ID":48236,"ELEMENT_SET_NO":999,"REV_AT_EPOCH":24611,"BSTAR":0.00020123,"MEAN_MOTION_DOT":8.7e-07,"MEAN_MOTION_DDOT":0.0},{"OBJECT_NAME":"ONEWEB-0194","OBJECT_ID":"2021-031AD","EPOCH":"2026-06-01T08:57:45.600480","MEAN_MOTION":13.14501818,"ECCENTRICITY":0.0001738,"INCLINATION":87.8951,"RA_OF_ASC_NODE":292.861,"ARG_OF_PERICENTER":91.8206,"MEAN_ANOMALY":268.3123,"EPHEMERIS_TYPE":0,"CLASSIFICATION_TYPE":"U","NORAD_CAT_ID":48237,"ELEMENT_SET_NO":999,"REV_AT_EPOCH":24628,"BSTAR":0.0004628,"MEAN_MOTION_DOT":1.84e-06,"MEAN_MOTION_DDOT":0.0},{"OBJECT_NAME":"ONEWEB-0193","OBJECT_ID":"2021-031AE","EPOCH":"2026-06-01T07:30:59.124384","MEAN_MOTION":13.14501743,"ECCENTRICITY":0.0001721,"INCLINATION":87.8952,"RA_OF_ASC_NODE":292.864,"ARG_OF_PERICENTER":82.9388,"MEAN_ANOMALY":277.1938,"EPHEMERIS_TYPE":0,"CLASSIFICATION_TYPE":"U","NORAD_CAT_ID":48238,"ELEMENT_SET_NO":999,"REV_AT_EPOCH":24622,"BSTAR":0.00057146,"MEAN_MOTION_DOT":2.25e-06,"MEAN_MOTION_DDOT":0.0},{"OBJECT_NAME":"ONEWEB-0191","OBJECT_ID":"2021-031AF","EPOCH":"2026-06-01T09:36:35.112096","MEAN_MOTION":13.14501991,"ECCENTRICITY":0.0002021,"INCLINATION":87.8955,"RA_OF_ASC_NODE":292.8439,"ARG_OF_PERICENTER":96.2496,"MEAN_ANOMALY":263.8864,"EPHEMERIS_TYPE":0,"CLASSIFICATION_TYPE":"U","NORAD_CAT_ID":48239,"ELEMENT_SET_NO":999,"REV_AT_EPOCH":24609,"BSTAR":1.1050000000000001e-05,"MEAN_MOTION_DOT":1.7e-07,"MEAN_MOTION_DDOT":0.0},{"OBJECT_NAME":"ONEWEB-0195","OBJECT_ID":"2021-031AG","EPOCH":"2026-06-01T09:03:26.762112","MEAN_MOTION":13.14505083,"ECCENTRICITY":0.0001651,"INCLINATION":87.8957,"RA_OF_ASC_NODE":292.8494,"ARG_OF_PERICENTER":111.0416,"MEAN_ANOMALY":249.089,"EPHEMERIS_TYPE":0,"CLASSIFICATION_TYPE":"U","NORAD_CAT_ID":48240,"ELEMENT_SET_NO":999,"REV_AT_EPOCH":24607,"BSTAR":0.00069074,"MEAN_MOTION_DOT":2.69e-06,"MEAN_MOTION_DDOT":0.0},{"OBJECT_NAME":"ONEWEB-0201","OBJECT_ID":"2021-031AH","EPOCH":"2026-06-01T10:36:09.604512","MEAN_MOTION":13.14503868,"ECCENTRICITY":0.0002127,"INCLINATION":87.8948,"RA_OF_ASC_NODE":292.8534,"ARG_OF_PERICENTER":102.6974,"MEAN_ANOMALY":257.4393,"EPHEMERIS_TYPE":0,"CLASSIFICATION_TYPE":"U","NORAD_CAT_ID":48241,"ELEMENT_SET_NO":999,"REV_AT_EPOCH":24631,"BSTAR":0.00019821000000000001,"MEAN_MOTION_DOT":8.6e-07,"MEAN_MOTION_DDOT":0.0},{"OBJECT_NAME":"ONEWEB-0207","OBJECT_ID":"2021-031AJ","EPOCH":"2026-06-01T08:17:47.773248","MEAN_MOTION":13.14501931,"ECCENTRICITY":0.0002097,"INCLINATION":87.8955,"RA_OF_ASC_NODE":292.8566,"ARG_OF_PERICENTER":102.3222,"MEAN_ANOMALY":257.8142,"EPHEMERIS_TYPE":0,"CLASSIFICATION_TYPE":"U","NORAD_CAT_ID":48242,"ELEMENT_SET_NO":999,"REV_AT_EPOCH":24621,"BSTAR":-0.00045694,"MEAN_MOTION_DOT":-1.57e-06,"MEAN_MOTION_DDOT":0.0}]