ONEWEB-0206             
1 48227U 21031T   26152.43054037 -.00000069  00000+0 -22139-3 0  9998
2 48227  87.8953 292.8391 0001851  93.5002 266.6339 13.14503185246157
ONEWEB-0182             
1 48228U 21031U   26152.34965622 -.00000139  00000+0 -40869-3 0  9998
2 48228  87.8948 292.8635 0002083  98.4740 261.6626 13.14502035246353
ONEWEB-0186             
1 48229U 21031V   26152.43687364  .00000003  00000+0 -25164-4 0  9994
2 48229  87.8957 292.8354 0001858 101.2213 258.9126 13.14501562246313
ONEWEB-0181             
1 48230U 21031W   26152.33856292 -.00000168  00000+0 -48712-3 0  9999
2 48230  87.8942 292.8871 0001786 105.4485 254.6842 13.14502512246156
ONEWEB-0188             
1 48231U 21031X   26152.37662867  .00000266  00000+0  68341-3 0  9994
2 48231  87.8942 292.8783 0001874 100.0836 260.0505 13.14503178246064
ONEWEB-0220             
1 48232U 21031Y   26151.88343898 -.00000198  00000+0 -56990-3 0  9993
2 48232  87.8957 292.9471 0001971 104.4154 255.7195 13.14502260246264
ONEWEB-0165             
1 48233U 21031Z   26152.36869335  .00000131  00000+0  31819-3 0  9995
2 48233  87.8951 292.8644 0001625 108.3873 251.7434 13.14502513246282
ONEWEB-0199             
1 48234U 21031AA  26152.35283302 -.00000081  00000+0 -25242-3 0  9998
2 48234  87.8956 292.8525 0001901  93.4742 266.6605 13.14502436246180
ONEWEB-0203             
1 48235U 21031AB  26151.88660683 -.00000152  00000+0 -44562-3 0  9992
2 48235  87.8955 292.9493 0001683  97.0824 263.0497 13.14501492246139
ONEWEB-0197             
1 48236U 21031AC  26152.39393304  .00000087  00000+0  20123-3 0  9995
2 48236  87.8948 292.8354 0002095 100.0558 260.0808 13.14503116246110
ONEWEB-0194             
1 48237U 21031AD  26152.37344445  .00000184  00000+0  46280-3 0  9996
2 48237  87.8951 292.8610 0001738  91.8206 268.3123 13.14501818246286
ONEWEB-0193             
1 48238U 21031AE  26152.31318431  .00000225  00000+0  57146-3 0  9996
2 48238  87.8952 292.8640 0001721  82.9388 277.1938 13.14501743246228
ONEWEB-0191             
1 48239U 21031AF  26152.40040639  .00000017  00000+0  11050-4 0  9993
2 48239  87.8955 292.8439 0002021  96.2496 263.8864 13.14501991246090
ONEWEB-0195             
1 48240U 21031AG  26152.37739308  .00000269  00000+0  69074-3 0  9996
2 48240  87.8957 292.8494 0001651 111.0416 249.0890 13.14505083246070
ONEWEB-0201             
1 48241U 21031AH  26152.44177783  .00000086  00000+0  19821-3 0  9990
2 48241  87.8948 292.8534 0002127 102.6974 257.4393 13.14503868246317
ONEWEB-0207             
1 48242U 21031AJ  26152.34569182 -.00000157  00000+0 -45694-3 0  9996
2 48242  87.8955 292.8566 0002097 102.3222 257.8142 13.14501931246214
